COSMOS 1892             
1 18421U 87088A   21029.48078089  .00000686  00000-0  32576-4 0  9992
2 18421  82.4984  49.8077 0015017   7.6110 352.5348 15.17440210818829
SL-14 R/B               
1 18749U 88001B   21029.61074042  .00000091  00000-0  82258-5 0  9994
2 18749  82.5161 145.7087 0017224 273.1240  97.7437 14.83243896765396
COSMOS 1933             
1 18958U 88020A   21029.36769059 -.00000122  00000-0 -11014-4 0  9996
2 18958  82.5283 267.4166 0013102 101.5501 258.7197 15.03844502769039
SL-3 R/B                
1 19046U 88032B   21029.51960278  .00000893  00000-0  69948-4 0  9993
2 19046  97.3933  46.4109 0037929 155.2875 205.0179 15.02849390770912
SL-16 R/B               
1 19120U 88039B   21029.50651295 -.00000033  00000-0  74510-5 0  9997
2 19120  71.0129  50.8630 0023571 316.1111  43.8140 14.19217708693726
COSMOS 1953             
1 19210U 88050A   21029.54472738  .00000043  00000-0  92754-6 0  9998
2 19210  82.5170 190.3407 0014345  70.7008 289.5769 15.06155179755699
SL-8 R/B                
1 19257U 88053B   21029.50212987  .00000041  00000-0  22542-4 0  9990
2 19257  74.0502 305.3349 0021465 230.3552 302.7874 14.37500172708487
COSMOS 1975             
1 19573U 88093A   21029.41848375  .00000128  00000-0  69269-5 0  9995
2 19573  82.5218 145.2955 0015639 111.9744 248.3147 15.05058088737494
SL-14 R/B               
1 19574U 88093B   21029.41755050  .00000073  00000-0  58931-5 0  9996
2 19574  82.5338 348.7422 0023149  77.7748  41.2301 14.83354789724361
SL-16 R/B               
1 19650U 88102B   21029.50306144 -.00000168  00000-0 -61061-4 0  9992
2 19650  71.0001 114.5753 0015614 322.5828  37.4207 14.15796451662870
INTERCOSMOS 24          
1 20261U 89080A   21029.54048764  .00000114  00000-0  33817-4 0  9990
2 20261  82.6020 233.9560 1202025 286.1448  61.0811 12.56168150432386
SL-14 R/B               
1 20262U 89080C   21029.16504173  .00000108  00000-0  23068-4 0  9990
2 20262  82.5939 289.3394 1237876 122.4857 250.2019 12.48955192427166
DELTA 2 R/B(1)          
1 20303U 89085B   21029.43838672  .00003103  00000-0  98328-4 0  9994
2 20303  35.6432  29.8649 0091537  26.7162 333.8242 15.28512366703183
DELTA 1 R/B             
1 20323U 89089B   21029.54263406  .00000073  00000-0  28147-4 0  9994
2 20323  97.1153 145.6173 0070453 239.0848 120.3410 14.48381233625593
ARIANE 40 R/B           
1 20443U 90005H   21029.42693149  .00000005  00000-0  16384-4 0  9990
2 20443  98.5481  96.5410 0010894  35.7056 324.4857 14.38113644624597
DELTA 2 R/B(1)          
1 20453U 90008B   21029.41241287  .00001981  00000-0  11201-3 0  9991
2 20453  35.6255   3.4301 0277867  31.7047 330.0080 14.86208772644825
COSMOS 2058             
1 20465U 90010A   21029.48218537  .00000356  00000-0  27669-4 0  9997
2 20465  82.4873  55.8361 0016128 153.9141 206.2898 14.98129242662169
SL-14 R/B               
1 20466U 90010B   21029.48400791  .00000069  00000-0  58776-5 0  9998
2 20466  82.5016 215.2338 0019483 318.2065  41.7660 14.81408869652192
SL-14 R/B               
1 20511U 90018B   21029.47273728  .00000074  00000-0  66011-5 0  9991
2 20511  82.5247 162.6477 0018987  96.3695 334.1993 14.80064460646543
HST                     
1 20580U 90037B   21029.36493552  .00000566  00000-0  23364-4 0  9994
2 20580  28.4693 265.3249 0002666   8.1399 155.0478 15.09545208490068
SL-16 R/B               
1 20625U 90046B   21029.56354272  .00000014  00000-0  32113-4 0  9991
2 20625  70.9980 253.5988 0016649 260.3546  99.5696 14.14667578584596
COSMOS 2084             
1 20663U 90055A   21029.56679022  .00000030  00000-0  21030-4 0  9990
2 20663  62.7948 133.1828 0048729 342.6709  17.2719 14.92182386657090
SL-6 R/B(2)             
1 20666U 90055D   21029.44759321  .00000060  00000-0  23710-4 0  9991
2 20666  62.7858  49.4501 0079135  18.4325 341.9607 14.92427260659028
SL-8 R/B                
1 20775U 90078B   21029.47740392  .00001385  00000-0  66398-4 0  9998
2 20775  82.9250  40.1241 0569188 213.9471 142.4063 14.35218044538159
SL-8 R/B                
1 21088U 91006B   21029.47676207  .00000050  00000-0  35296-4 0  9992
2 21088  82.9432 117.1940 0021907 215.2008 155.3882 13.77147057507320
OKEAN-3                 
1 21397U 91039A   21029.51354305  .00000304  00000-0  26620-4 0  9991
2 21397  82.5240 321.7993 0018924 129.6514 230.6379 14.93031384585993
COSMOS 2151             
1 21422U 91042A   21029.51235384  .00000194  00000-0  16518-4 0  9991
2 21422  82.4986  67.7189 0013831 191.4803 168.6103 14.92208091584592
SL-14 R/B               
1 21423U 91042B   21029.44276263  .00000073  00000-0  66439-5 0  9999
2 21423  82.4954 165.6929 0016361 236.1279 123.8378 14.79814119577085
ERS-1                   
1 21574U 91050A   21029.45352239  .00000027  00000-0  23767-4 0  9999
2 21574  98.6295 349.2386 0032621 336.9945  22.9779 14.37779421547599
ARIANE 40 R/B           
1 21610U 91050F   21029.42590042  .00000025  00000-0  21350-4 0  9997
2 21610  98.4405 102.1163 0002199 314.3670  56.1139 14.40932085550248
INTERCOSMOS 25          
1 21819U 91086A   21029.39116794 -.00000463  00000-0 -10010-3 0  9999
2 21819  82.5818 350.9651 1517313 150.4927 219.1255 12.05148895271506
SL-8 R/B                
1 21876U 92008B   21029.57144194 -.00000008  00000-0 -24076-4 0  9995
2 21876  82.9254 214.3458 0033817 303.7274  88.5446 13.75668077452962
SL-8 R/B                
1 21938U 92020B   21029.42380936  .00000012  00000-0 -38102-5 0  9998
2 21938  82.9293  98.8154 0030624 102.9128 268.2286 13.75293151444734
COSMOS 2219             
1 22219U 92076A   21029.50797114 -.00000218  00000-0 -90527-4 0  9998
2 22219  71.0623 315.4848 0017749 178.6004 181.5171 14.13657619454767
SL-16 R/B               
1 22220U 92076B   21029.55707912 -.00000103  00000-0 -27688-4 0  9993
2 22220  71.0001 155.6202 0010966  51.6205  23.8203 14.16463949457697
COSMOS 2221             
1 22236U 92080A   21029.51133843  .00000217  00000-0  20911-4 0  9993
2 22236  82.5061 250.0326 0015325 293.7512  66.2098 14.88004928502891
SL-16 R/B               
1 22285U 92093B   21029.50905520 -.00000293  00000-0 -12644-3 0  9998
2 22285  71.0231 318.2708 0006817 270.8843  89.1498 14.15053379449305
COSMOS 2228             
1 22286U 92094A   21029.49766968  .00000213  00000-0  20225-4 0  9994
2 22286  82.5190 206.5566 0022244  52.8373 307.4871 14.88224294498060
SL-16 R/B               
1 22566U 93016B   21029.54847571 -.00000041  00000-0  33711-5 0  9991
2 22566  71.0078 171.1531 0012709 279.7489  80.2198 14.14975850438311
COSMOS 2242             
1 22626U 93024A   21029.43032363  .00000216  00000-0  20676-4 0  9998
2 22626  82.5197 234.8362 0020109  53.2969 307.0092 14.88076063502467
SL-16 R/B               
1 22803U 93059B   21029.32647322  .00000206  00000-0  12653-3 0  9992
2 22803  70.9920 343.2550 0017146 179.8836 180.2294 14.16831825415293
ARIANE 40 R/B           
1 22830U 93061H   21029.56502997 -.00000005  00000-0  15054-4 0  9996
2 22830  98.7349  86.4947 0011193  24.9988 335.1735 14.31465071427170
COSMOS 2278             
1 23087U 94023A   21029.51289679 -.00000313  00000-0 -14057-3 0  9998
2 23087  71.0539 115.1506 0009488 339.9506  20.1243 14.13817664381140
SL-16 R/B               
1 23088U 94023B   21029.38496911  .00000261  00000-0  16017-3 0  9991
2 23088  71.0000  26.9043 0005505 257.6722 102.3784 14.14682367382269
SL-16 R/B               
1 23343U 94074B   21029.39040193  .00000026  00000-0  11028-4 0  9996
2 23343  97.9683  85.9911 0007840 135.2248 235.4179 14.76860009411767
SL-16 R/B               
1 23405U 94077B   21029.52423100  .00000087  00000-0  69148-4 0  9999
2 23405  70.9848 315.1219 0001179 182.6809 177.4308 14.15237659352335
ERS-2                   
1 23560U 95021A   21029.51527992  .00001045  00000-0  47373-4 0  9995
2 23560  98.5536 220.2898 0004447 114.6327 245.5370 15.23630687376539
ARIANE 40+ R/B          
1 23561U 95021B   21029.61090417  .00000047  00000-0  30618-4 0  9999
2 23561  98.6959  77.9245 0005992 308.3427 203.3655 14.38006534351075
SL-16 R/B               
1 23705U 95058B   21029.56911936 -.00000302  00000-0 -13085-3 0  9995
2 23705  71.0229 134.5323 0010069  80.2822 279.9438 14.15145969303967
SL-16 R/B               
1 24298U 96051B   21029.49387019 -.00000201  00000-0 -82377-4 0  9997
2 24298  70.8376 153.9968 0014712   7.9261 352.2088 14.12472230258277
ORBVIEW 2 (SEASTAR)     
1 24883U 97037A   21029.60862778  .00000031  00000-0  27306-4 0  9995
2 24883  98.6273 148.0132 0003045 140.0252 220.1157 14.33592886241113
SL-16 R/B               
1 25400U 98043G   21029.52343559 -.00000014  00000-0  12560-4 0  9999
2 25400  98.6297 327.4965 0010666  41.1798 319.0185 14.25469116173220
SL-16 R/B               
1 25407U 98045B   21029.56529038  .00000170  00000-0  11043-3 0  9996
2 25407  71.0115 142.3986 0008172 333.1362  26.9337 14.15832232163086
ISS (ZARYA)             
1 25544U 98067A   21027.77992426  .00003336  00000-0  68893-4 0  9991
2 25544  51.6465 317.1909 0002399 302.6503 164.1536 15.48908950266831
SL-8 R/B                
1 25723U 99022C   21029.55143213  .00067011  12369-4  22223-3 0  9993
2 25723  48.4061 191.5298 0004154 295.5507  64.5022 15.90478279213418
CZ-4B R/B               
1 25732U 99025C   21029.54983674 -.00000033  00000-0  59307-5 0  9990
2 25732  98.9211  65.5670 0036358 286.4222 229.4941 14.17687519123850
OKEAN-O                 
1 25860U 99039A   21029.55885044  .00000060  00000-0  16249-4 0  9996
2 25860  98.1980  58.2904 0000979 114.7463 245.3848 14.76708408158886
SL-16 R/B               
1 25861U 99039B   21029.57880084  .00000028  00000-0  11399-4 0  9993
2 25861  98.2092  42.2141 0016298 147.7597   5.2334 14.78617593161033
DELTA 2 R/B             
1 25876U 99041E   21029.58369064  .00000021  00000-0  42952-4 0  9995
2 25876  51.7676 137.6085 0530622 283.6534  70.5865 14.04502689100406
